{"type": "FeatureCollection", "features": [ {"type": "Feature", "properties": {"norad_id": 39543, "name": "FENGYUN 1C DEB", "group": "fengyun-1c-debris", "lat": 35.19593595384841, "lon": -148.88665143514592, "alt_km": 767.362854073609, "timestamp": "2025-12-21T07:34:34.805618+00:00", "meta": {"OBJECT_NAME": "FENGYUN 1C DEB", "OBJECT_ID": "1999-025EWL", "EPOCH": "2025-12-18T08:47:52.753056", "MEAN_MOTION": 13.70202499, "ECCENTRICITY": 0.03390808, "INCLINATION": 99.0409, "RA_OF_ASC_NODE": 21.8883, "ARG_OF_PERICENTER": 127.4128, "MEAN_ANOMALY": 235.8396, "EPHEMERIS_TYPE": 0, "CLASSIFICATION_TYPE": "U", "NORAD_CAT_ID": 39543, "ELEMENT_SET_NO": 999, "REV_AT_EPOCH": 49262, "BSTAR": 0.00072405565, "MEAN_MOTION_DOT": 9.19e-06, "MEAN_MOTION_DDOT": 0}, "tle": {"line1": "1 39543U 99025EWL 25352.36658279  .00000919  00000+0  72406-3 0  9992", "line2": "2 39543  99.0409  21.8883 0339080 127.4128 235.8396 13.70202499492621"}}, "geometry": {"type": "Point", "coordinates": [-148.88665143514592, 35.19593595384841]}}, {"type": "Feature", "properties": {"norad_id": 39544, "name": "FENGYUN 1C DEB", "group": "fengyun-1c-debris", "lat": -22.745161315344692, "lon": 50.45469024796598, "alt_km": 911.2203860305281, "timestamp": "2025-12-21T07:34:34.805627+00:00", "meta": {"OBJECT_NAME": "FENGYUN 1C DEB", "OBJECT_ID": "1999-025EWM", "EPOCH": "2025-12-18T10:16:20.672256", "MEAN_MOTION": 14.05533723, "ECCENTRICITY": 0.00544071, "INCLINATION": 98.7417, "RA_OF_ASC_NODE": 231.3683, "ARG_OF_PERICENTER": 353.4562, "MEAN_ANOMALY": 6.589, "EPHEMERIS_TYPE": 0, "CLASSIFICATION_TYPE": "U", "NORAD_CAT_ID": 39544, "ELEMENT_SET_NO": 999, "REV_AT_EPOCH": 56935, "BSTAR": 0.00032895311, "MEAN_MOTION_DOT": 4.99e-06, "MEAN_MOTION_DDOT": 0}, "tle": {"line1": "1 39544U 99025EWM 25352.42801704  .00000499  00000+0  32895-3 0  9994", "line2": "2 39544  98.7417 231.3683 0054407 353.4562   6.5890 14.05533723569356"}}, "geometry": {"type": "Point", "coordinates": [50.45469024796598, -22.745161315344692]}}, {"type": "Feature", "properties": {"norad_id": 40688, "name": "FENGYUN 1C DEB", "group": "fengyun-1c-debris", "lat": -28.534961343584406, "lon": -40.443650381541815, "alt_km": 1053.5093957853405, "timestamp": "2025-12-21T07:34:34.805636+00:00", "meta": {"OBJECT_NAME": "FENGYUN 1C DEB", "OBJECT_ID": "1999-025EWU", "EPOCH": "2025-12-20T14:57:06.316128", "MEAN_MOTION": 13.83835528, "ECCENTRICITY": 0.0142102, "INCLINATION": 98.9699, "RA_OF_ASC_NODE": 143.8219, "ARG_OF_PERICENTER": 10.2902, "MEAN_ANOMALY": 350.111, "EPHEMERIS_TYPE": 0, "CLASSIFICATION_TYPE": "U", "NORAD_CAT_ID": 40688, "ELEMENT_SET_NO": 999, "REV_AT_EPOCH": 30026, "BSTAR": 0.00029461, "MEAN_MOTION_DOT": 3.11e-06, "MEAN_MOTION_DDOT": 0}, "tle": {"line1": "1 40688U 99025EWU 25354.62298977  .00000311  00000+0  29461-3 0  9999", "line2": "2 40688  98.9699 143.8219 0142102  10.2902 350.1110 13.83835528300268"}}, "geometry": {"type": "Point", "coordinates": [-40.443650381541815, -28.534961343584406]}}, {"type": "Feature", "properties": {"norad_id": 40689, "name": "FENGYUN 1C DEB", "group": "fengyun-1c-debris", "lat": 68.30623717926017, "lon": -111.05354324028524, "alt_km": 784.5324895611957, "timestamp": "2025-12-21T07:34:34.805651+00:00", "meta": {"OBJECT_NAME": "FENGYUN 1C DEB", "OBJECT_ID": "1999-025EWV", "EPOCH": "2025-12-15T14:00:17.692704", "MEAN_MOTION": 13.64713186, "ECCENTRICITY": 0.03107205, "INCLINATION": 99.1258, "RA_OF_ASC_NODE": 267.381, "ARG_OF_PERICENTER": 93.9269, "MEAN_ANOMALY": 269.7453, "EPHEMERIS_TYPE": 0, "CLASSIFICATION_TYPE": "U", "NORAD_CAT_ID": 40689, "ELEMENT_SET_NO": 999, "REV_AT_EPOCH": 54922, "BSTAR": 0.0014500265, "MEAN_MOTION_DOT": 1.584e-05, "MEAN_MOTION_DDOT": 0}, "tle": {"line1": "1 40689U 99025EWV 25349.58353811  .00001584  00000+0  14500-2 0  9998", "line2": "2 40689  99.1258 267.3810 0310720  93.9269 269.7453 13.64713186549229"}}, "geometry": {"type": "Point", "coordinates": [-111.05354324028524, 68.30623717926017]}}, {"type": "Feature", "properties": {"norad_id": 40691, "name": "FENGYUN 1C DEB", "group": "fengyun-1c-debris", "lat": -56.80508255235448, "lon": -166.75972562677242, "alt_km": 874.8026127081812, "timestamp": "2025-12-21T07:34:34.805661+00:00", "meta": {"OBJECT_NAME": "FENGYUN 1C DEB", "OBJECT_ID": "1999-025EWX", "EPOCH": "2025-12-03T08:15:02.306016", "MEAN_MOTION": 13.89944729, "ECCENTRICITY": 0.0128434, "INCLINATION": 99.0573, "RA_OF_ASC_NODE": 9.8547, "ARG_OF_PERICENTER": 336.6089, "MEAN_ANOMALY": 22.9259, "EPHEMERIS_TYPE": 0, "CLASSIFICATION_TYPE": "U", "NORAD_CAT_ID": 40691, "ELEMENT_SET_NO": 999, "REV_AT_EPOCH": 55305, "BSTAR": 0.00023937, "MEAN_MOTION_DOT": 2.71e-06, "MEAN_MOTION_DDOT": 0}, "tle": {"line1": "1 40691U 99025EWX 25337.34377669  .00000271  00000+0  23937-3 0  9996", "line2": "2 40691  99.0573   9.8547 0128434 336.6089  22.9259 13.89944729553058"}}, "geometry": {"type": "Point", "coordinates": [-166.75972562677242, -56.80508255235448]}}, {"type": "Feature", "properties": {"norad_id": 40695, "name": "FENGYUN 1C DEB", "group": "fengyun-1c-debris", "lat": 29.220454422764757, "lon": 109.23576132781194, "alt_km": 688.5458201799102, "timestamp": "2025-12-21T07:34:34.805670+00:00", "meta": {"OBJECT_NAME": "FENGYUN 1C DEB", "OBJECT_ID": "1999-025EXB", "EPOCH": "2025-12-20T01:39:13.620960", "MEAN_MOTION": 14.50978361, "ECCENTRICITY": 0.0280485, "INCLINATION": 99.4265, "RA_OF_ASC_NODE": 113.1701, "ARG_OF_PERICENTER": 311.2419, "MEAN_ANOMALY": 46.4907, "EPHEMERIS_TYPE": 0, "CLASSIFICATION_TYPE": "U", "NORAD_CAT_ID": 40695, "ELEMENT_SET_NO": 999, "REV_AT_EPOCH": 31972, "BSTAR": 0.0001467559, "MEAN_MOTION_DOT": 8.87e-06, "MEAN_MOTION_DDOT": 0}, "tle": {"line1": "1 40695U 99025EXB 25354.06890765  .00000887  00000+0  14676-3 0  9998", "line2": "2 40695  99.4265 113.1701 0280485 311.2419  46.4907 14.50978361319729"}}, "geometry": {"type": "Point", "coordinates": [109.23576132781194, 29.220454422764757]}}, {"type": "Feature", "properties": {"norad_id": 40696, "name": "FENGYUN 1C DEB", "group": "fengyun-1c-debris", "lat": 36.73558605037929, "lon": -24.91219614097746, "alt_km": 876.1738613514126, "timestamp": "2025-12-21T07:34:34.805679+00:00", "meta": {"OBJECT_NAME": "FENGYUN 1C DEB", "OBJECT_ID": "1999-025EXC", "EPOCH": "2025-12-17T05:24:20.221920", "MEAN_MOTION": 13.96744083, "ECCENTRICITY": 0.00795529, "INCLINATION": 98.9563, "RA_OF_ASC_NODE": 337.8647, "ARG_OF_PERICENTER": 345.1128, "MEAN_ANOMALY": 14.7694, "EPHEMERIS_TYPE": 0, "CLASSIFICATION_TYPE": "U", "NORAD_CAT_ID": 40696, "ELEMENT_SET_NO": 999, "REV_AT_EPOCH": 55742, "BSTAR": 8.1397831e-05, "MEAN_MOTION_DOT": 7.3e-07, "MEAN_MOTION_DDOT": 0}, "tle": {"line1": "1 40696U 99025EXC 25351.22523405  .00000073  00000+0  81398-4 0  9991", "line2": "2 40696  98.9563 337.8647 0079552 345.1128  14.7694 13.96744083557426"}}, "geometry": {"type": "Point", "coordinates": [-24.91219614097746, 36.73558605037929]}}, {"type": "Feature", "properties": {"norad_id": 41003, "name": "FENGYUN 1C DEB", "group": "fengyun-1c-debris", "lat": 53.93895483616899, "lon": 107.83591836173619, "alt_km": 683.0298901195256, "timestamp": "2025-12-21T07:34:34.805688+00:00", "meta": {"OBJECT_NAME": "FENGYUN 1C DEB", "OBJECT_ID": "1999-025EXH", "EPOCH": "2025-12-18T12:10:10.012512", "MEAN_MOTION": 14.73078069, "ECCENTRICITY": 0.00691513, "INCLINATION": 98.9664, "RA_OF_ASC_NODE": 272.2138, "ARG_OF_PERICENTER": 274.1099, "MEAN_ANOMALY": 85.2204, "EPHEMERIS_TYPE": 0, "CLASSIFICATION_TYPE": "U", "NORAD_CAT_ID": 41003, "ELEMENT_SET_NO": 999, "REV_AT_EPOCH": 52505, "BSTAR": 0.0031269645, "MEAN_MOTION_DOT": 0.00020893, "MEAN_MOTION_DDOT": 0}, "tle": {"line1": "1 41003U 99025EXH 25352.50706033  .00020893  00000+0  31270-2 0  9990", "line2": "2 41003  98.9664 272.2138 0069151 274.1099  85.2204 14.73078069525054"}}, "geometry": {"type": "Point", "coordinates": [107.83591836173619, 53.93895483616899]}}, {"type": "Feature", "properties": {"norad_id": 41006, "name": "FENGYUN 1C DEB", "group": "fengyun-1c-debris", "lat": -2.8209481047741476, "lon": 48.19719183346074, "alt_km": 1082.976876194286, "timestamp": "2025-12-21T07:34:34.805697+00:00", "meta": {"OBJECT_NAME": "FENGYUN 1C DEB", "OBJECT_ID": "1999-025EXL", "EPOCH": "2025-12-19T21:45:46.059840", "MEAN_MOTION": 13.85407302, "ECCENTRICITY": 0.0190575, "INCLINATION": 102.3676, "RA_OF_ASC_NODE": 226.9637, "ARG_OF_PERICENTER": 351.9089, "MEAN_ANOMALY": 7.8995, "EPHEMERIS_TYPE": 0, "CLASSIFICATION_TYPE": "U", "NORAD_CAT_ID": 41006, "ELEMENT_SET_NO": 999, "REV_AT_EPOCH": 57588, "BSTAR": 0.0020631, "MEAN_MOTION_DOT": 2.639e-05, "MEAN_MOTION_DDOT": 0}, "tle": {"line1": "1 41006U 99025EXL 25353.90678310  .00002639  00000+0  20631-2 0  9991", "line2": "2 41006 102.3676 226.9637 0190575 351.9089   7.8995 13.85407302575889"}}, "geometry": {"type": "Point", "coordinates": [48.19719183346074, -2.8209481047741476]}}, {"type": "Feature", "properties": {"norad_id": 41007, "name": "FENGYUN 1C DEB", "group": "fengyun-1c-debris", "lat": 29.52954198692882, "lon": 16.91696032403942, "alt_km": 817.0361429054165, "timestamp": "2025-12-21T07:34:34.805706+00:00", "meta": {"OBJECT_NAME": "FENGYUN 1C DEB", "OBJECT_ID": "1999-025EXM", "EPOCH": "2025-11-29T06:55:22.773792", "MEAN_MOTION": 13.85678237, "ECCENTRICITY": 0.01723955, "INCLINATION": 99.9731, "RA_OF_ASC_NODE": 359.205, "ARG_OF_PERICENTER": 79.2855, "MEAN_ANOMALY": 282.7657, "EPHEMERIS_TYPE": 0, "CLASSIFICATION_TYPE": "U", "NORAD_CAT_ID": 41007, "ELEMENT_SET_NO": 999, "REV_AT_EPOCH": 57212, "BSTAR": 0.0017167305, "MEAN_MOTION_DOT": 2.158e-05, "MEAN_MOTION_DDOT": 0}, "tle": {"line1": "1 41007U 99025EXM 25333.28845803  .00002158  00000+0  17167-2 0  9990", "line2": "2 41007  99.9731 359.2050 0172395  79.2855 282.7657 13.85678237572123"}}, "geometry": {"type": "Point", "coordinates": [16.91696032403942, 29.52954198692882]}}]}